KUIPER-00125            
1 65954U 25228H   25325.82260219  .00039506  00000+0  11338-2 0  9995
2 65954  51.8766 121.3536 0005670 291.5402  68.4979 15.35462232  7201
KUIPER-00126            
1 65955U 25228J   25326.16673610 -.00836648  00000+0 -43247-1 0  9994
2 65955  51.8885 120.7351 0005947 305.0308 339.6755 15.18629819  4990
KUIPER-00127            
1 65956U 25228K   25326.16673610 -.00606462  00000+0 -25136-1 0  9991
2 65956  51.8831 120.0444 0004469 289.7495  17.9388 15.25678169  5888
KUIPER-00128            
1 65957U 25228L   25325.82275676  .00038738  00000+0  11237-2 0  9995
2 65957  51.8780 121.3628 0006205 286.7225  73.3079 15.35133021  7203
KUIPER-00129            
1 65958U 25228M   25325.81970948  .00039576  00000+0  11337-2 0  9991
2 65958  51.8778 121.3425 0006084 276.9438  83.0856 15.35517096  7207
KUIPER-00130            
1 65959U 25228N   25325.69666779  .00028541  00000+0  83704-3 0  9990
2 65959  51.8762 122.0070 0005387 295.6666  64.3763 15.34943465  7189
KUIPER-00134            
1 65960U 25228P   25325.69853002  .00045883  00000+0  13310-2 0  9992
2 65960  51.8770 122.0190 0005777 293.4469  66.5909 15.35055181  7189
KUIPER-00135            
1 65961U 25228Q   25325.69840010  .00029582  00000+0  86833-3 0  9997
2 65961  51.8784 122.0286 0004139 285.6862  74.3667 15.34902318  7182
